[{"OBJECT_NAME":"STARLINK-1276","OBJECT_ID":"2020-019J","EPOCH":"2026-03-09T16:25:14.602656","MEAN_MOTION":15.06875764,"ECCENTRICITY":0.00025174,"INCLINATION":53.0577,"RA_OF_ASC_NODE":166.6421,"ARG_OF_PERICENTER":41.2868,"MEAN_ANOMALY":318.8311,"EPHEMERIS_TYPE":0,"CLASSIFICATION_TYPE":"U","NORAD_CAT_ID":45368,"ELEMENT_SET_NO":999,"REV_AT_EPOCH":32973,"BSTAR":0.0039831661,"MEAN_MOTION_DOT":0.00060332,"MEAN_MOTION_DDOT":0},{"OBJECT_NAME":"KUIPER-00232","OBJECT_ID":"2025-301R","EPOCH":"2026-03-09T22:00:01.999584","MEAN_MOTION":15.06812029,"ECCENTRICITY":0.0002965,"INCLINATION":51.8873,"RA_OF_ASC_NODE":65.5535,"ARG_OF_PERICENTER":139.5556,"MEAN_ANOMALY":115.4886,"EPHEMERIS_TYPE":0,"CLASSIFICATION_TYPE":"U","NORAD_CAT_ID":67148,"ELEMENT_SET_NO":999,"REV_AT_EPOCH":493,"BSTAR":-0.072865786,"MEAN_MOTION_DOT":-0.01020247,"MEAN_MOTION_DDOT":0}]
